KUIPER-00016            
1 63732U 25088J   25281.09255605  .00001179  00000+0  18383-3 0  9997
2 63732  51.9152  66.3723 0013280 278.3324  81.6133 14.79942998 24736
KUIPER-00018            
1 63733U 25088K   25280.85432439  .00004074  00000+0  60335-3 0  9994
2 63733  51.9016  55.8795 0011922 308.5839  51.4054 14.76933465 24863
KUIPER-00019            
1 63734U 25088L   25281.10389750 -.00009383  00000+0 -12235-2 0  9996
2 63734  51.8999  53.8079 0008834 321.4550  38.5780 14.79209700 24917
KUIPER-00020            
1 63735U 25088M   25281.10219934  .00003286  00000+0  45942-3 0  9999
2 63735  51.9015  57.8088 0007280 297.0057  63.0162 14.79974995 25065
KUIPER-00021            
1 63736U 25088N   25281.10074830  .00004403  00000+0  60620-3 0  9996
2 63736  51.9006  58.8195 0005424 298.7157  61.3260 14.79931533 24883
KUIPER-00023            
1 63737U 25088P   25281.09962274 -.00003630  00000+0 -44707-3 0  9994
2 63737  51.9002  60.2911 0010346 319.7896  40.2300 14.79899262 25161
KUIPER-00024            
1 63738U 25088Q   25280.75128787  .00003523  00000+0  49897-3 0  9994
2 63738  51.9032  49.1139 0003806 312.5047  47.5593 14.79232902 25419
KUIPER-00025            
1 63739U 25088R   25281.10347272  .00018443  00000+0  24362-2 0  9993
2 63739  51.8964  56.3322 0007728 298.8792  61.1394 14.80011276 25206
